
STARLINK-5870           
1 57222U 23094E   24337.84471499  .00001272  00000+0  10920-3 0  9997
2 57222  43.0059  20.1155 0001393 265.7669  94.3014 15.02535125 77882
STARLINK-5519           
1 57223U 23094F   24338.37986823 -.00000221  00000+0 -12738-5 0  9995
2 57223  43.0019  17.2500 0000790 254.6025 105.4730 15.02535168 77722
STARLINK-5983           
1 57224U 23094G   24338.83852342 -.00021609  00000+0 -15854-2 0  9997
2 57224  43.0098  14.6714 0001694 255.7105 104.3550 15.02631825 77795
STARLINK-6294           
1 57225U 23094H   24338.58152076 -.00000061  00000+0  10575-4 0  9992
2 57225  43.0050  16.1797 0000838 290.0899  69.9853 15.02537738 77759
STARLINK-6350           
1 57226U 23094J   24338.82745294 -.00000934  00000+0 -54106-4 0  9998
2 57226  43.0051  14.5836 0000944 260.5200  99.5536 15.02539255 77790
STARLINK-5996           
1 57227U 23094K   24337.83472492  .00001897  00000+0  15548-3 0  9999
2 57227  43.0053  20.0388 0000840 277.5010  82.5737 15.02528548 77641
STARLINK-6230           
1 57228U 23094L   24338.82412015  .00000356  00000+0  41398-4 0  9997
2 57228  43.0043  14.5605 0000849 274.0893  85.9853 15.02536921 77797
STARLINK-6233           
1 57229U 23094M   24338.83078526 -.00000545  00000+0 -25298-4 0  9997
2 57229  43.0059  14.6100 0000951 254.5567 105.5171 15.02535038 77791
STARLINK-6250           
1 57230U 23094N   24338.81856814 -.00001909  00000+0 -12626-3 0  9996
2 57230  42.9964  14.5160 0002049 278.9592  81.1019 15.02543966 77798
STARLINK-5840           
1 57231U 23094P   24338.79526326  .00001422  00000+0  12033-3 0  9996
2 57231  43.0029  14.3420 0000817 267.5694  92.5055 15.02532611 77799
STARLINK-5872           
1 57232U 23094Q   24338.79415155  .00000863  00000+0  78964-4 0  9998
2 57232  43.0035  14.3298 0000922 263.4174  96.6563 15.02535443 78454
STARLINK-5866           
1 57233U 23094R   24338.46953348  .00001041  00000+0  92151-4 0  9997
2 57233  43.0080  16.1991 0001268 274.7965  85.2733 15.02537782 77744
STARLINK-6368           
1 57234U 23094S   24338.79193081  .00000444  00000+0  47938-4 0  9993
2 57234  43.0036  14.3166 0000871 267.4519  92.6223 15.02538949 77790
STARLINK-6360           
1 57235U 23094T   24338.80413997  .00000411  00000+0  45528-4 0  9994
2 57235  43.0061  14.4075 0001045 249.7379 110.3351 15.02539779 77792
STARLINK-6315           
1 57236U 23094U   24338.79895730 -.00003983  00000+0 -27973-3 0  9994
2 57236  43.0056   2.2315 0001553 265.6807  94.3858 15.02560921 77938
STARLINK-6365           
1 57237U 23094V   24338.79858601  .00002168  00000+0  17548-3 0  9990
2 57237  43.0097  14.3699 0001181 263.9547  96.1161 15.02544186 77798
STARLINK-6334           
1 57238U 23094W   24338.79119569 -.00002601  00000+0 -17750-3 0  9993
2 57238  43.0002   2.1654 0000668 262.9137  97.1629 15.02547743 77932
STARLINK-6330           
1 57239U 23094X   24338.39195907  .00000927  00000+0  83687-4 0  9990
2 57239  43.0022  16.4755 0001115 266.9229  93.1486 15.02549195 77737
STARLINK-6351           
1 57240U 23094Y   24338.78231420 -.00001368  00000+0 -86206-4 0  9998
2 57240  43.0053   2.1011 0001684 273.6211  86.4439 15.02547737 77932
STARLINK-6349           
1 57241U 23094Z   24338.79565944  .00013738  00000+0  10318-2 0  9992
2 57241  43.0026   2.2020 0000534 291.8843  68.1943 15.02471545 77930
STARLINK-6306           
1 57242U 23094AA  24338.79231235  .00000068  00000+0  20102-4 0  9992
2 57242  43.0015   2.1780 0001075 269.3870  90.6850 15.02531820 77932
STARLINK-6346           
1 57243U 23094AB  24338.79451024 -.00013404  00000+0 -97748-3 0  9992
2 57243  43.0004   2.1943 0000953 270.3790  89.6943 15.02597431 77930
STARLINK-5610           
1 57244U 23094AC  24338.78453848 -.00003193  00000+0 -22143-3 0  9999
2 57244  43.0035   2.1127 0001058 273.1016  86.9706 15.02538111 77935
STARLINK-5587           
1 57245U 23094AD  24338.78787156  .00000174  00000+0  27974-4 0  9994
2 57245  43.0018   2.1439 0000871 276.1908  83.8836 15.02532960 77934
STARLINK-5049           
1 57246U 23094AE  24338.75901319 -.00005209  00000+0 -37088-3 0  9993
2 57246  43.0061   1.9224 0000876 258.4956 101.5788 15.02533776 77933
STARLINK-5039           
1 57247U 23094AF  24338.78121627 -.00000986  00000+0 -57979-4 0  9992
2 57247  42.9986   2.0899 0000811 285.2051  74.8702 15.02528519 77938
STARLINK-5514           
1 57248U 23094AG  24338.77787824 -.00000737  00000+0 -39530-4 0  9996
2 57248  43.0023   2.0659 0001076 270.1255  89.9464 15.02537494 77934
STARLINK-5517           
1 57249U 23094AH  24338.77564104  .00001128  00000+0  98557-4 0  9998
2 57249  43.0029   1.9907 0001099 263.0174  97.0543 15.02545088 77937
STARLINK-5488           
1 57250U 23094AJ  24338.76567118  .00000658  00000+0  63795-4 0  9990
2 57250  43.0057   1.9754 0001275 258.5581 101.5118 15.02533386 77934
STARLINK-5513           
1 57251U 23094AK  24338.77233085  .00000451  00000+0  48473-4 0  9992
2 57251  43.0050   2.0231 0001227 232.4102 127.6629 15.02534849 77938
STARLINK-5511           
1 57252U 23094AL  24338.35903353  .00003186  00000+0  25070-3 0  9994
2 57252  43.0062   4.0847 0000986 236.0542 124.0206 15.02550092 77879
STARLINK-5516           
1 57253U 23094AM  24338.77122197 -.00000098  00000+0  77959-5 0  9995
2 57253  43.0052   2.0171 0001266 263.4992  96.5706 15.02533477 77935
STARLINK-5490           
1 57254U 23094AN  24338.41995965  .00001089  00000+0  95704-4 0  9995
2 57254  43.0047   3.6812 0001787 252.7786 107.2861 15.02535480 77881
STARLINK-5481           
1 57255U 23094AP  24338.35570432  .00004111  00000+0  31917-3 0  9991
2 57255  43.0011   4.0539 0000438 174.3797 185.7050 15.02541884 77872
STARLINK-5512           
1 57256U 23094AQ  24338.13629215  .00000047  00000+0  18563-4 0  9999
2 57256  43.0026   5.0102 0001281 269.8905  90.1791 15.02535360 77844
STARLINK-5503           
1 57257U 23094AR  24338.76122772  .00000365  00000+0  42127-4 0  9991
2 57257  43.0050   1.9401 0001497 250.2198 109.8483 15.02539951 78595
STARLINK-5476           
1 57258U 23094AS  24338.35015812 -.00001113  00000+0 -67325-4 0  9994
2 57258  43.0049   4.0133 0000896 258.5806 101.4935 15.02538208 77873
STARLINK-5026           
1 57260U 23094AU  24337.81167721 -.00000939  00000+0 -54500-4 0  9990
2 57260  43.0040   6.8559 0000766 252.5516 107.5242 15.02531219 78433
STARLINK-5485           
1 57261U 23094AV  24338.80858057  .00001826  00000+0  15022-3 0  9999
2 57261  43.0068  14.4437 0000985 248.4113 111.6624 15.02539041 77793
STARLINK-5504           
1 57262U 23094AW  24338.35237599  .00001335  00000+0  11391-3 0  9992
2 57262  43.0059   4.0325 0001263 255.3603 104.7100 15.02533141 77872
STARLINK-5509           
1 57263U 23094AX  24338.80747165  .00001227  00000+0  10588-3 0  9995
2 57263  43.0065  14.4376 0001279 272.3684  87.7012 15.02535063 77794
STARLINK-5858           
1 57264U 23094AY  24338.80439606 -.00000714  00000+0 -37777-4 0  9996
2 57264  43.0056   1.4059 0001293 275.4592  84.6102 15.02540555 77942
STARLINK-5890           
1 57265U 23094AZ  24338.07092338  .00000718  00000+0  68232-4 0  9995
2 57265  43.0022   5.3615 0001070 264.5216  95.5505 15.02533945 77833
HULIANWANG JISHU SHIYAN*
1 57288U 23095A   24338.80848666  .00000115  00000+0  18537-3 0  9998
2 57288  86.5060 198.6701 0016893 315.1594  44.8183 13.39494133 68736
HULIANWANG JISHU SHIYAN*
1 57289U 23095B   24338.87579490  .00000114  00000+0  18282-3 0  9998
2 57289  86.5061 198.6485 0015379 313.5817  46.4049 13.39499538 68749
STARLINK-30198          
1 57290U 23096A   24338.33804747  .00001119  00000+0  97902-4 0  9991
2 57290  43.0000 210.4061 0001185 289.8177  70.2537 15.02542405 78213
STARLINK-30239          
1 57291U 23096B   24338.33474375 -.00002187  00000+0 -14693-3 0  9995
2 57291  43.0031 210.3798 0002585 271.8627  88.1919 15.02514827 78219
STARLINK-30210          
1 57292U 23096C   24338.66375344 -.00010198  00000+0 -74106-3 0  9994
2 57292  42.9974 208.5456 0001956 252.4813 107.5816 15.02528809 78146
STARLINK-30235          
1 57294U 23096E   24338.65712116  .00001815  00000+0  14938-3 0  9998
2 57294  43.0015 208.4987 0001099 284.2620  75.8100 15.02531400 78268
STARLINK-30206          
1 57295U 23096F   24338.34138172  .00001840  00000+0  15119-3 0  9999
2 57295  43.0011 210.3978 0000852 270.5309  89.5435 15.02542984 78212
STARLINK-30238          
1 57296U 23096G   24338.05548898  .00001146  00000+0  99905-4 0  9993
2 57296  43.0018 211.7241 0001036 260.9623  99.1102 15.02536547 77074
STARLINK-30234          
1 57297U 23096H   24338.36167706  .00017708  00000+0  11864-2 0  9990
2 57297  43.0015 208.8917 0005284 251.7968 108.2301 15.06600994 78232
STARLINK-30241          
1 57298U 23096J   24338.62382175  .00001271  00000+0  10915-3 0  9994
2 57298  43.0035 208.2350 0001201 276.6960  83.3746 15.02537607 78268
STARLINK-30199          
1 57299U 23096K   24338.38122359  .00000956  00000+0  85855-4 0  9999
2 57299  43.0030 209.8713 0000584 269.1156  90.9619 15.02533619 78229
STARLINK-30236          
1 57300U 23096L   24338.37791477 -.00000808  00000+0 -44791-4 0  9996
2 57300  43.0026 209.8424 0001996 258.6548 101.4070 15.02513029 78268
STARLINK-30201          
1 57301U 23096M   24338.70695221  .00001424  00000+0  12044-3 0  9992
2 57301  43.0060 208.0130 0001124 262.1206  97.9509 15.02533805 77377
STARLINK-30233          
1 57302U 23096N   24338.37122852  .00001423  00000+0  12037-3 0  9992
2 57302  43.0030 209.7739 0001198 275.5089  84.5617 15.02539594 77324
STARLINK-30232          
1 57303U 23096P   24338.36790363  .00000653  00000+0  63427-4 0  9994
2 57303  43.0042 209.7808 0001116 269.1944  90.8770 15.02537697 78080
